FACSAT-2                
1 56205U 23054AD  24025.07655259  .00024662  00000+0  84481-3 0  9991
2 56205  97.3858 283.0291 0011505 311.5942  48.4312 15.30138396 44045
