{"type": "Feature", "geometry": {"type": "Point", "coordinates": ["-98.21", "21.12"]}, "properties": {"localTime": "Thu Jan 25 2024 10:21:48 GMT-0500 (hora est\u00e1ndar de Colombia)", "julianTime": "1706196108", "utcTime": "10:21:59 AM", "altitude": "491.67", "elevation": "-69.4", "TLE": {"Norad_Id": 56205, "International_Classification": "Unclassified", "International_Designation": "23054AD", "Epoch_Time_(ISO)": "2024-01-25T01:50:14Z", "First_Derivative_Mean_Motion": 0.00024662, "Second_Derivative_Mean_Motion": 0.0, "Inclination": 97.3858, "Right_Ascension_of_the_Ascending_Node": 283.0291000000001, "Eccentricity": 0.0011505, "Argument_of_Perigee": 311.5942, "Mean_Anomaly": 48.4312, "Mean_Motion": 15.30138396, "Revolution_Number_at_Epoch": 4404}}}